#dP2024  2 29  0  0  0.00000000     289 d+D   IGS20 FIT AIUB
## 2303 345600.00000000   300.00000000 60369 0.0000000000000
+  120   G01G02G03G04G05G06G07G08G09G10G11G12G13G14G15G16G17
+        G18G19G20G21G22G23G24G25G26G27G28G29G30G31G32R01R02
+        R03R04R05R07R08R09R11R12R13R14R15R16R17R18R19R20R21
+        R22R24R26E02E03E04E05E07E08E09E10E11E12E13E14E15E18
+        E19E21E24E25E26E27E30E31E33E34E36C06C07C08C09C10C11
+        C12C13C14C16C19C20C21C22C23C24C25C26C27C28C29C30C32
+        C33C34C35C36C37C38C39C40C41C42C43C44C45C46C48J02J03
+        J04  0  0  0  0  0  0  0  0  0  0  0  0  0  0  0  0
++         5  5  5  5  5  5  5  5  5  5  5  5  5  5  5  5  5
++         5  5  5  5  5  5  5  5  5  5  5  5  5  5  5  5  5
++         5  5  5  5  5  5  5  5  5  5  5  5  5  6  6  6  5
++         5  6  5  5  5  5  5  5  5  5  5  5  5  5  5  5  5
++         5  5  5  5  5  5  5  5  5  5  5  5  5  5  5  5  5
++         5  5  5  5  5  5  5  5  5  5  5  5  5  5  5  5  5
++         5  5  5  5  5  5  5  5  5  5  5  5  5  5  5  5  5
++         5  0  0  0  0  0  0  0  0  0  0  0  0  0  0  0  0
%c M  cc GPS ccc cccc cccc cccc cccc ccccc ccccc ccccc ccccc
%c cc cc ccc ccc cccc cccc cccc cccc ccccc ccccc ccccc ccccc
%f  1.2500000  1.025000000  0.00000000000  0.000000000000000
%f  0.0000000  0.000000000  0.00000000000  0.000000000000000
%i    0    0    0    0      0      0      0      0         0
%i    0    0    0    0      0      0      0      0         0
/* Center for Orbit Determination in Europe (CODE)                              
/* MGEX orbits and clocks for year-day 2024-0600                                
/* Middle day of a 3-day long-arc multi-GNSS solution                           
/* Systems considered: GPS/GLONASS/Galileo/BeiDou/QZSS                          
/* Product reference - DOI 10.48350/185742                                      
/* PCV:IGS20      OL/AL:FES2014b NONE     YN ORB:CoN CLK:CoN                    
*  2024  2 29 15 25  0.00000000
PG01   -280.178070 -15655.479999 -21743.281458    171.665922
PG02   8520.716288 -18500.164111 -16414.713401   -477.779486
PG03  -4529.469106 -18169.609432 -19028.886397    223.729334
PG04   1718.893774 -26411.204738    995.093931    303.647042
PG05  -8828.386547  12113.001850  21756.789168   -163.639759
PG06 -24179.526833   4411.771770 -10138.609796    387.511356
PG07 -12600.753373 -10723.514886  21350.786959    -73.456369
PG08   6109.099638 -24376.701567   7789.909201     20.051498
PG09  -8372.067447 -21582.744220  12890.038111    108.603794
PG10  23730.998731  10075.930774  -6844.734509      1.050237
PG11 -23705.061795  11814.090546   1637.839384   -591.905547
PG12   2331.756825  18534.745563 -19193.630464   -482.719689
PG13 -13225.024715  18165.771705  13779.843484    629.974712
PG14 -23066.510507 -12904.085939  -3501.319534    338.477165
PG15  -3084.341135  25084.620120   7325.297625    132.770878
PG16  15079.630101  -6442.521493  20651.408470   -351.817231
PG17 -12934.009143 -10016.812012 -20468.399982    715.354550
PG18  13139.624232   9532.861549  21071.926288   -566.006920
PG19 -15225.312685   -107.312350 -21926.334212    447.462881
PG20 -19772.965999   4743.968943  17065.928188    385.675065
PG21  12895.904300 -18494.320579 -12724.111202    133.144107
PG22 -22477.504132  -8226.905467 -10764.902947     23.348913
PG23  20330.655550  16497.816643   5060.944747    166.724340
PG24  -9377.294903  19490.673690 -15550.289349   -439.422048
PG25  13418.059283  19352.529817 -12882.202473    490.019790
PG26  22655.847449    579.268895  13987.318644    184.905167
PG27  12652.237537 -15373.424671  17080.581273     -8.140130
PG28  23256.021746  -2757.033546 -12543.570102   -147.789758
PG29   5022.628612  23181.951448  11793.911668   -605.918497
PG30 -21171.888979  -2662.541103  16111.398068   -426.114206
PG31  24956.851305  -9101.682913  -3592.895184   -227.900244
PG32  14514.239226   6199.811638 -21186.950247   -613.990980
PR01  10521.157297  -3133.875991 -23018.002175     78.447714
PR02   2010.933173 -18974.204805 -16842.873258    -22.532928
PR03  -7794.404747 -24234.836282   -949.029845     95.472375
PR04 -12714.263932 -16220.103361  15055.765316    225.547049
PR05 -11033.782531    546.658441  23006.600203    127.675134
PR07   8119.217644  24209.811849    209.962091     76.902713
PR08  12902.011505  15997.820561 -15066.594439    -74.587453
PR09 -10112.167850   9170.000356 -21550.954641    172.713869
PR11  22019.121891   8639.030812  -9523.864781     32.761970
PR12  23559.144262   -303.217079   9812.320711     37.283152
PR13  12520.348207  -7899.965614  20753.268239    -44.838752
PR14  -8725.612891 -11884.495064  20825.353457     26.130882
PR15 -22713.518271  -8326.072062   8108.935866     81.774185
PR16 -23670.429170    200.649498  -9544.779417     23.648701
PR17   2613.497192 -16329.987854 -19424.269705     65.149631
PR18 -10315.338133  -4036.818876 -22966.481652    129.826464
PR19 -17982.471459   8396.013463 -16026.487589   -267.650445
PR20 -16172.834006  19341.631693   4048.152336   -109.044510
PR21  -2589.404606  16122.256739  19590.363337    -80.839296
PR22  11207.633918   3744.924189  22630.487322    110.487711
PR24  15013.258386 -20117.251800  -4541.614623    -45.899744
PR26  12897.052661  16650.110347 -14349.447417   -195.958922
PE02  -9854.813953 -21609.542334  17641.607663    107.395443
PE03  -2152.978593 -28886.922238   6116.286849    -97.087557
PE04  13582.559515  15760.883218 -21043.946826   -338.713658
PE05  10350.681022 -24929.832821 -12140.508648   4724.671510
PE07 -16941.266707   5905.128800  23549.922949   -106.361515
PE08 -13172.964363 -16467.620635  20778.608878   -231.549001
PE09  16803.351203  -5810.052808 -23662.362592   -353.646879
PE10  25085.861505   -968.373145  15676.701055   -605.702234
PE11  27561.541545  -8757.994754   6251.777489   3213.109730
PE12  19177.631142   6296.852434  21641.005703   -927.667563
PE13 -27550.062934   8354.426244  -6911.443693    -20.350571
PE14  12343.474080  12611.417788  16169.370742     53.255899
PE15 -18743.579631  -6591.496504 -21937.548260    -88.559558
PE18 -14102.140230 -21023.086019 -19700.049954    382.314914
PE19    504.809976  29317.449895  -4052.701086   -521.487851
PE21  -9426.331342  13937.127745 -24361.917267   -581.524258
PE24  24241.122165   2603.942990  16780.743749   -625.279355
PE25   9823.738295 -13655.509209  24351.846067      1.523921
PE26 -19606.913398  18397.144244  12397.530772    382.937773
PE27 -24056.965110  -2187.317993 -17104.494131   -286.969435
PE30 -24206.879644 -17016.156812    337.376477    -47.067888
PE31  24343.319756  16846.927094   -160.350772    -17.135768
PE33  -1527.995278  17636.220592  23729.663976      8.330868
PE34    889.040264 -17462.205645 -23885.103093    -97.356932
PE36  20109.609557 -18160.085002 -11891.342588   -192.731159
PC06 -18855.535813  32942.448544 -18628.192398    241.608627
PC07  -4764.126944  37436.884564 -18510.039908   -880.535007
PC08  -6249.987585  19348.563029  36936.620581      0.171148
PC09 -12867.556243  31635.180282 -24673.972417   -556.838701
PC10   1734.165324  39825.094586 -12537.773200     64.775029
PC11   4838.746217  18003.256210  20832.836699    435.816739
PC12 -10405.942585  25014.751883   6740.521637   -203.159856
PC13   2973.838053  23034.535353  35394.926557    421.357948
PC14  14091.834335  24036.642945   -762.964273    299.910573
PC16 -21833.426505  32496.539134 -15809.245008   -368.694024
PC19 -18159.346350 -18778.474802   9882.698687   -922.694340
PC20  -9038.555424 -25536.318235  -6760.709954   -210.659131
PC21  -6526.802836  17323.108403  20892.985791   -961.565878
PC22 -17387.597254   -874.245951  21818.409457    -91.884431
PC23  27797.184693  -1229.032761   2175.526109   -778.344755
PC24   2675.567626  16302.072139 -22513.653136    929.254819
PC25  22047.111470   9844.908810 -14023.474122    338.022987
PC26 -17001.869232  13057.407886 -17868.913147   -256.180511
PC27  15568.298740 -23069.522183   1914.259800    278.055486
PC28  19904.706396 -10871.115283  16261.341982    211.783845
PC29 -12599.996053 -10198.551059 -22720.107285    248.290812
PC30   2300.191653 -24140.941559 -13794.199445    -31.556225
PC32   6413.509220 -17344.373002 -20884.254738   -575.279772
PC33  18234.907714  18722.469730  -9747.456759   -953.010457
PC34  -1063.146260  23563.043366  14920.257704    379.930282
PC35 -19549.902358  11478.765870 -16313.088352    422.161212
PC36 -21470.798449 -10579.348187  14352.976621      2.221570
PC37  17732.976704 -12474.673393  17586.353717   -940.138645
PC38 -15318.678070  18572.056021  34648.836413    139.810173
PC39 -24641.227251  32969.670906  -9615.705195     -7.389176
PC40  -9057.317040  34398.981434 -22428.042433    -58.702565
PC41  17675.580127   1666.804208 -21467.481243   -898.031605
PC42   7820.873982  25447.952574   8361.619039   -450.343658
PC43  12068.353131  11206.283463  22519.538624     62.290911
PC44 -14807.831256  23582.405295  -2121.839770    399.196936
PC45 -27764.324379   1269.550614  -2368.122962    -73.097519
PC46  -3618.984412 -16116.111916  22476.793195   -127.865766
PC48 -14292.815752 -23944.295629   1030.454972     72.605090
PJ02 -24273.291902  17213.274939 -25258.407466     -2.439322
PJ03 -29182.599490  30428.109078   6421.061057     -0.224367
PJ04 -24720.816192  28196.334889  25181.464310     50.803329
EOF
